[{"OBJECT_NAME":"ALOS-2","OBJECT_ID":"2014-029A","EPOCH":"2026-03-09T22:07:16.177728","MEAN_MOTION":14.79502935,"ECCENTRICITY":0.00014489,"INCLINATION":97.9188,"RA_OF_ASC_NODE":167.5154,"ARG_OF_PERICENTER":94.7043,"MEAN_ANOMALY":265.4334,"EPHEMERIS_TYPE":0,"CLASSIFICATION_TYPE":"U","NORAD_CAT_ID":39766,"ELEMENT_SET_NO":999,"REV_AT_EPOCH":63690,"BSTAR":0.00010743863,"MEAN_MOTION_DOT":7.52e-6,"MEAN_MOTION_DDOT":0},{"OBJECT_NAME":"KUIPER-00114","OBJECT_ID":"2025-171V","EPOCH":"2026-03-09T12:33:46.702080","MEAN_MOTION":14.79936867,"ECCENTRICITY":8.503e-5,"INCLINATION":51.8993,"RA_OF_ASC_NODE":176.3385,"ARG_OF_PERICENTER":132.8626,"MEAN_ANOMALY":227.2408,"EPHEMERIS_TYPE":0,"CLASSIFICATION_TYPE":"U","NORAD_CAT_ID":65151,"ELEMENT_SET_NO":999,"REV_AT_EPOCH":3261,"BSTAR":0.0008099403,"MEAN_MOTION_DOT":5.959e-5,"MEAN_MOTION_DDOT":0}]
